OBJECT_NAME,OBJECT_ID,EPOCH,MEAN_MOTION,ECCENTRICITY,INCLINATION,RA_OF_ASC_NODE,ARG_OF_PERICENTER,MEAN_ANOMALY,EPHEMERIS_TYPE,CLASSIFICATION_TYPE,NORAD_CAT_ID,ELEMENT_SET_NO,REV_AT_EPOCH,BSTAR,MEAN_MOTION_DOT,MEAN_MOTION_DDOT
BEIDOU-3S IGSO-1S (C31),2015-019A,2026-06-19T23:53:37.596192,1.00249609,.00388634,49.1899,295.4270,191.0750,231.2891,0,U,40549,999,4110,0,-.176E-5,0
GPS BIIF-10 (PRN 08),2015-033A,2026-06-19T17:08:11.788512,2.00556101,.01150943,53.9803,266.9823,30.2379,330.4622,0,U,40730,999,8004,0,-.51E-6,0
BEIDOU-3S M2S (C58),2015-037A,2026-06-19T11:18:28.045152,1.86231851,.00084322,54.8690,301.9679,258.8961,101.0039,0,U,40748,999,7416,0,-.84E-6,0
BEIDOU-3S M1S (C57),2015-037B,2026-06-16T10:58:00.731424,1.86254753,.00034483,54.8681,302.0590,61.6955,298.3263,0,U,40749,999,7411,0,-.7E-6,0
GSAT0205 (GALILEO 9),2015-045A,2026-05-24T07:17:44.873376,1.67409242,.00064058,54.9357,222.4171,263.0112,96.9692,0,U,40889,999,6656,0,-.14E-6,0
GSAT0206 (GALILEO 10),2015-045B,2026-06-18T01:03:10.689408,1.70473811,.00017798,54.9444,221.5807,334.3054,25.7732,0,U,40890,999,6705,0,.32E-6,0
BEIDOU-3S IGSO-2S (C56),2015-053A,2026-06-19T17:02:10.485312,1.00258902,.00655838,49.2167,258.7515,192.2245,167.5336,0,U,40938,999,3937,0,-.143E-5,0
GPS BIIF-11 (PRN 10),2015-062A,2026-06-19T06:30:52.053984,2.00566982,.01119963,56.9608,30.7307,231.0798,127.9655,0,U,41019,999,7787,0,-.88E-6,0
GSAT-15 (GAGAN/PRN 139),2015-065A,2026-06-19T22:38:37.575744,1.00272731,.00043752,0.0626,264.3335,166.6067,270.3915,0,U,41028,999,3882,0,-.263E-5,0
GSAT0209 (GALILEO 12),2015-079A,2026-06-18T05:05:12.477408,1.70473656,.000525,55.8280,101.2339,345.1239,14.8344,0,U,41174,999,6479,0,-.11E-6,0
GSAT0208 (GALILEO 11),2015-079B,2026-06-19T14:31:49.223712,1.70473634,.00048541,55.8273,101.1925,343.5334,16.4302,0,U,41175,999,6523,0,-.12E-6,0
IRNSS-1E,2016-003A,2026-06-18T17:31:47.913024,1.00277463,.00189408,33.2372,59.7280,178.9729,42.9724,0,U,41241,999,3809,0,-.318E-5,0
GPS BIIF-12 (PRN 32),2016-007A,2026-06-13T21:04:02.010720,2.00551861,.00961206,55.5220,89.5909,247.4205,111.5460,0,U,41328,999,7577,0,-.28E-6,0
COSMOS 2514 (751),2016-008A,2026-06-19T15:09:18.836928,2.13102571,.00113762,65.0201,312.9226,198.2261,161.7251,0,U,41330,999,8067,0,-.59E-6,0
BEIDOU-2 IGSO-6 (C13),2016-021A,2026-06-16T02:58:21.700128,1.00259474,.00571844,60.2243,38.0497,231.4868,132.3999,0,U,41434,999,3747,0,-.15E-5,0
IRNSS-1G,2016-027A,2026-06-18T16:32:08.571840,1.00265368,.00075489,5.2016,97.4387,355.5290,191.4476,0,U,41469,999,3719,0,-.343E-5,0
GSAT0211 (GALILEO 14),2016-030A,2026-06-18T13:20:53.363616,1.70473904,.0002964,55.0948,221.6573,322.3705,37.6930,0,U,41549,999,6269,0,.29E-6,0
GSAT0210 (GALILEO 13),2016-030B,2026-06-18T05:26:40.812864,1.70473788,.0005022,55.0944,221.6643,247.0655,112.9679,0,U,41550,999,6268,0,.31E-6,0
BEIDOU-2 G7 (C03),2016-037A,2026-06-19T21:57:24.778368,1.00275104,.00064635,1.7277,69.3496,357.9912,280.6400,0,U,41586,999,691,0,-.359E-5,0
EUTELSAT 117 WEST B (WAAS/PRN 131),2016-038B,2026-06-18T22:37:55.689024,1.00271826,.00006025,0.0100,153.3935,317.0300,19.2461,0,U,41589,999,3668,0,-.18E-6,0
GSAT0207 (GALILEO 15),2016-069A,2026-06-19T02:12:08.956512,1.70473593,.0005228,55.4999,101.0336,330.8344,29.1142,0,U,41859,999,5943,0,-.12E-6,0
GSAT0212 (GALILEO 16),2016-069B,2026-06-18T22:41:05.677440,1.70473680,.00046071,55.4975,101.0327,1.4092,358.5693,0,U,41860,999,5968,0,-.12E-6,0
GSAT0213 (GALILEO 17),2016-069C,2026-06-19T07:29:53.490624,1.70474173,.00048304,55.4999,101.0305,313.5079,46.4306,0,U,41861,999,5955,0,-.12E-6,0
GSAT0214 (GALILEO 18),2016-069D,2026-06-18T20:55:42.277440,1.70473520,.0004721,55.4996,101.0352,311.5610,48.3755,0,U,41862,999,5967,0,-.12E-6,0
SES-15 (WAAS/PRN 133),2017-026A,2026-06-19T17:23:46.764384,1.00267764,.00004199,0.0199,335.2563,73.0761,351.3876,0,U,42709,999,745,0,.54E-6,0
QZS-2 (QZSS/PRN 194),2017-028A,2026-06-19T11:28:51.813408,1.00283355,.0758837,39.4240,243.1214,269.2922,69.3071,0,U,42738,999,764,0,-.184E-5,0
QZS-3 (QZSS/PRN 199),2017-048A,2026-06-19T20:19:27.699168,1.00274949,.00019668,0.0609,164.2084,280.3206,255.4033,0,U,42917,999,3228,0,-.353E-5,0
COSMOS 2522 (752),2017-055A,2026-06-18T01:28:30.358272,2.13102224,.00111204,64.0788,191.8550,242.4701,117.4658,0,U,42939,999,6799,0,.58E-6,0
QZS-4 (QZSS/PRN 195),2017-062A,2026-06-18T08:24:11.162016,1.00250086,.0745019,40.1070,343.4662,271.8091,274.2172,0,U,42965,999,3181,0,-.36E-5,0
BEIDOU-3 M1 (C19),2017-069A,2026-06-17T03:11:35.831904,1.86230842,.00104432,56.6923,63.0864,325.9765,33.9976,0,U,43001,999,5860,0,-.51E-6,0
BEIDOU-3 M2 (C20),2017-069B,2026-06-19T05:16:16.152096,1.86230544,.00091354,56.6927,63.0540,351.7270,8.2996,0,U,43002,999,5863,0,-.62E-6,0
